ONEWEB-0300             
1 49089U 21075Q   24137.72341173 -.00000250  00000+0 -72985-3 0  9992
2 49089  87.8923 142.2724 0001820 100.2323 259.9011 13.12442446135325
ONEWEB-0301             
1 49090U 21075R   24137.70750787  .00000262  00000+0  69403-3 0  9999
2 49090  87.8923 142.2786 0001866  98.1807 261.9533 13.12440827134688
ONEWEB-0302             
1 49091U 21075S   24137.77104169  .00000493  00000+0  13354-2 0  9993
2 49091  87.8924 142.2641 0002153  83.4091 276.7283 13.12444590134678
ONEWEB-0304             
1 49092U 21075T   24137.75680461  .00000039  00000+0  66084-4 0  9992
2 49092  87.9169 157.4189 0002116  82.2629 277.8743 13.17649688133301
ONEWEB-0305             
1 49093U 21075U   24137.74889356  .00000063  00000+0  12912-3 0  9993
2 49093  87.9164 157.4083 0001846  76.3306 283.8031 13.17649551133334
ONEWEB-0308             
1 49094U 21075V   24137.76468993  .00000435  00000+0  11742-2 0  9998
2 49094  87.8924 142.2651 0001972  92.1594 267.9760 13.12444818134681
ONEWEB-0309             
1 49095U 21075W   24137.75364106  .00000022  00000+0  22866-4 0  9992
2 49095  87.9170 157.4109 0002582  84.4758 275.6668 13.17649355133305
ONEWEB-0310             
1 49096U 21075X   24137.93146157  .00000365  00000+0  97888-3 0  9992
2 49096  87.8932 142.2367 0002227  88.7513 271.3870 13.12443096135333
